OBJECT_NAME,OBJECT_ID,EPOCH,MEAN_MOTION,ECCENTRICITY,INCLINATION,RA_OF_ASC_NODE,ARG_OF_PERICENTER,MEAN_ANOMALY,EPHEMERIS_TYPE,CLASSIFICATION_TYPE,NORAD_CAT_ID,ELEMENT_SET_NO,REV_AT_EPOCH,BSTAR,MEAN_MOTION_DOT,MEAN_MOTION_DDOT
ONEWEB-0012,2019-010A,2026-07-11T13:43:56.889408,13.16593747,.0001661,87.9079,223.9415,90.6479,269.4843,0,U,44057,999,35477,-.53108E-4,-.7E-7,0
ONEWEB-0010,2019-010B,2026-07-11T14:20:27.229632,13.16592608,.0002366,87.9083,223.9324,101.3352,258.8045,0,U,44058,999,35482,-.29054E-3,-.98E-6,0
ONEWEB-0008,2019-010C,2026-07-11T14:56:55.534272,13.16593181,.0002187,87.9078,223.9228,87.8601,272.2780,0,U,44059,999,35494,.28545E-3,.122E-5,0
ONEWEB-0007,2019-010D,2026-07-11T14:25:55.382016,13.15548180,.0001911,87.8988,254.3565,102.6202,257.5142,0,U,44060,999,35458,.28522E-4,.24E-6,0
ONEWEB-0006,2019-010E,2026-07-11T16:21:08.275392,13.15550606,.0002255,87.8996,254.3078,97.8955,262.2431,0,U,44061,999,35464,.84258E-5,.16E-6,0
ONEWEB-0011,2019-010F,2026-07-11T17:25:01.259328,13.15549393,.0002273,87.9000,254.3089,96.6928,263.4461,0,U,44062,999,35464,-.13979E-3,-.4E-6,0
ONEWEB-0013,2020-008A,2026-07-11T14:54:56.244384,13.09457021,.0001075,87.8493,47.8928,53.1561,306.9665,0,U,45131,999,30926,-.20121E-2,-.68E-5,0
ONEWEB-0017,2020-008B,2026-07-11T14:05:06.056160,13.10376003,.0001982,87.8817,31.4056,92.5658,267.5696,0,U,45132,999,31114,-.17226E-2,-.589E-5,0
ONEWEB-0020,2020-008C,2026-07-11T13:21:06.706368,13.10369611,.000183,87.8816,31.4111,85.4519,274.6817,0,U,45133,999,31153,.95034E-3,.344E-5,0
ONEWEB-0021,2020-008D,2026-07-11T13:43:04.355616,13.10369968,.0001696,87.8811,31.4226,90.2338,269.8983,0,U,45134,999,31184,-.14265E-2,-.485E-5,0
ONEWEB-0023,2020-008F,2026-07-11T13:58:57.326880,13.10371853,.000184,87.8821,31.4043,82.1354,277.9982,0,U,45136,999,31127,-.18234E-2,-.624E-5,0
ONEWEB-0024,2020-008G,2026-07-11T13:18:51.329664,13.10369466,.0001884,87.8831,31.4043,92.6298,267.5045,0,U,45137,999,31143,.11633E-2,.419E-5,0
ONEWEB-0025,2020-008H,2026-07-11T13:18:27.923904,13.10369162,.0002216,87.8828,31.3936,82.7261,277.4118,0,U,45138,999,31176,.10723E-2,.387E-5,0
ONEWEB-0026,2020-008J,2026-07-11T13:45:53.876736,13.11417570,.0002034,87.8873,16.2107,92.0830,268.0530,0,U,45139,999,31430,.19076E-2,.689E-5,0
ONEWEB-0028,2020-008K,2026-07-11T13:10:28.867008,13.11417959,.0001359,87.8875,16.2235,79.6856,280.4425,0,U,45140,999,31181,-.81628E-3,-.277E-5,0
ONEWEB-0032,2020-008L,2026-07-11T14:07:44.207904,13.10375354,.0001527,87.8820,31.4078,72.5945,287.5349,0,U,45141,999,31149,-.141E-2,-.48E-5,0
ONEWEB-0033,2020-008M,2026-07-11T13:30:52.277184,13.10368884,.0002168,87.8813,31.4188,97.0500,263.0874,0,U,45142,999,31140,-.10291E-3,-.23E-6,0
ONEWEB-0035,2020-008N,2026-07-11T14:00:24.404256,13.10377752,.0001845,87.8814,31.4081,90.0704,270.0635,0,U,45143,999,31113,-.17256E-2,-.59E-5,0
ONEWEB-0036,2020-008P,2026-07-11T15:18:14.019264,13.10368461,.0001381,87.8819,31.4130,58.1639,301.9622,0,U,45144,999,31156,.12059E-2,.434E-5,0
ONEWEB-0038,2020-008Q,2026-07-11T12:10:52.707936,13.11415639,.0001708,87.8876,16.2363,148.4619,211.6611,0,U,45145,999,31351,.13328835E-2,.485E-5,0
ONEWEB-0039,2020-008R,2026-07-11T13:35:45.710592,13.10371446,.0001291,87.8814,31.4089,74.7490,285.3780,0,U,45146,999,31135,-.3139E-3,-.97E-6,0
ONEWEB-0040,2020-008S,2026-07-11T13:25:58.819584,13.10368731,.0001904,87.8810,31.4208,77.2167,282.9173,0,U,45147,999,31105,.41601E-3,.158E-5,0
ONEWEB-0043,2020-008U,2026-07-11T13:28:38.395200,13.10372056,.0001369,87.8821,31.4098,77.5552,282.5728,0,U,45149,999,31137,.12527E-3,.56E-6,0
ONEWEB-0044,2020-008V,2026-07-11T14:09:59.463648,13.10377348,.0001784,87.8828,31.4058,81.8491,278.2839,0,U,45150,999,31167,-.11182E-2,-.378E-5,0
ONEWEB-0045,2020-008W,2026-07-11T13:53:13.391808,13.11416321,.0001742,87.8884,16.2033,93.8865,266.2462,0,U,45151,999,31360,.16489E-2,.597E-5,0
ONEWEB-0047,2020-008X,2026-07-11T13:59:58.809120,13.10372508,.000185,87.8825,31.4063,94.1004,266.0335,0,U,45152,999,31139,-.17787E-2,-.608E-5,0
ONEWEB-0048,2020-008Y,2026-07-11T13:52:52.392288,13.10372056,.0001684,87.8812,31.4257,91.1190,269.0130,0,U,45153,999,31100,-.15781E-2,-.538E-5,0
ONEWEB-0049,2020-008Z,2026-07-11T13:57:31.624128,13.10372246,.0001966,87.8815,31.4147,75.3215,284.8130,0,U,45154,999,31122,-.17352E-2,-.593E-5,0
ONEWEB-0051,2020-008AA,2026-07-11T12:00:55.175904,13.11417747,.00018395,87.8882,16.2256,88.8617,271.2722,0,U,45155,999,31427,.16940708E-2,.613E-5,0
ONEWEB-0052,2020-008AB,2026-07-11T14:27:18.588672,13.10377749,.0001858,87.8825,31.3980,73.9939,286.1393,0,U,45156,999,31113,.46653E-3,.176E-5,0
ONEWEB-0053,2020-008AC,2026-07-11T13:23:32.728416,13.10369256,.0001555,87.8812,31.4266,73.5914,286.5384,0,U,45157,999,31110,.71611E-3,.263E-5,0
